{
  "type": "FeatureCollection",
  "features": [
    {
      "type": "Feature",
      "properties": {
        "norad_id": 31937,
        "name": "FENGYUN 1C DEB",
        "group": "fengyun-1c-debris",
        "lat": -19.813797973687674,
        "lon": -102.16597832775453,
        "alt_km": 626.9998719276864,
        "timestamp": "2025-12-16T23:36:36.481467+00:00",
        "meta_object_name": "FENGYUN 1C DEB",
        "meta_object_id": "1999-025CMN",
        "meta_epoch": "2025-12-06T23:52:27.149088",
        "meta_mean_motion": 14.78022374,
        "meta_eccentricity": 0.0162921,
        "meta_inclination": 99.2561,
        "meta_ra_of_asc_node": 69.7316,
        "meta_arg_of_pericenter": 315.3928,
        "meta_mean_anomaly": 43.4262,
        "meta_ephemeris_type": 0,
        "meta_classification_type": "U",
        "meta_norad_cat_id": 31937,
        "meta_element_set_no": 999,
        "meta_rev_at_epoch": 65984,
        "meta_bstar": 0.0011794166,
        "meta_mean_motion_dot": 0.00010567,
        "meta_mean_motion_ddot": 0,
        "tle_line1": "1 31937U 99025CMN 25340.99475867  .00010567  00000+0  11794-2 0  9999",
        "tle_line2": "2 31937  99.2561  69.7316 0162921 315.3928  43.4262 14.78022374659842"
      },
      "geometry": {
        "type": "Point",
        "coordinates": [
          -102.16597832775453,
          -19.813797973687674
        ]
      }
    },
    {
      "type": "Feature",
      "properties": {
        "norad_id": 31938,
        "name": "FENGYUN 1C DEB",
        "group": "fengyun-1c-debris",
        "lat": 59.07714847511836,
        "lon": 7.7883396734316515,
        "alt_km": 469.2186373231416,
        "timestamp": "2025-12-16T23:36:36.481477+00:00",
        "meta_object_name": "FENGYUN 1C DEB",
        "meta_object_id": "1999-025CMP",
        "meta_epoch": "2025-12-14T19:58:10.232832",
        "meta_mean_motion": 14.95638465,
        "meta_eccentricity": 0.01527985,
        "meta_inclination": 98.9295,
        "meta_ra_of_asc_node": 20.5547,
        "meta_arg_of_pericenter": 59.5249,
        "meta_mean_anomaly": 302.0958,
        "meta_ephemeris_type": 0,
        "meta_classification_type": "U",
        "meta_norad_cat_id": 31938,
        "meta_element_set_no": 999,
        "meta_rev_at_epoch": 99167,
        "meta_bstar": 0.00030579911,
        "meta_mean_motion_dot": 4.214e-05,
        "meta_mean_motion_ddot": 0,
        "tle_line1": "1 31938U 99025CMP 25348.83206288  .00004214  00000+0  30580-3 0  9997",
        "tle_line2": "2 31938  98.9295  20.5547 0152798  59.5249 302.0958 14.95638465991677"
      },
      "geometry": {
        "type": "Point",
        "coordinates": [
          7.7883396734316515,
          59.07714847511836
        ]
      }
    },
    {
      "type": "Feature",
      "properties": {
        "norad_id": 31944,
        "name": "FENGYUN 1C DEB",
        "group": "fengyun-1c-debris",
        "lat": 80.78455237455324,
        "lon": 46.47533208187737,
        "alt_km": 859.2189082021814,
        "timestamp": "2025-12-16T23:36:36.481490+00:00",
        "meta_object_name": "FENGYUN 1C DEB",
        "meta_object_id": "1999-025CMV",
        "meta_epoch": "2025-12-12T04:22:40.814976",
        "meta_mean_motion": 14.11787529,
        "meta_eccentricity": 0.0151811,
        "meta_inclination": 99.2035,
        "meta_ra_of_asc_node": 133.6743,
        "meta_arg_of_pericenter": 5.8705,
        "meta_mean_anomaly": 173.5719,
        "meta_ephemeris_type": 0,
        "meta_classification_type": "U",
        "meta_norad_cat_id": 31944,
        "meta_element_set_no": 999,
        "meta_rev_at_epoch": 62902,
        "meta_bstar": 0.0007470391,
        "meta_mean_motion_dot": 1.471e-05,
        "meta_mean_motion_ddot": 0,
        "tle_line1": "1 31944U 99025CMV 25346.18241684  .00001471  00000+0  74704-3 0  9997",
        "tle_line2": "2 31944  99.2035 133.6743 0151811   5.8705 173.5719 14.11787529629027"
      },
      "geometry": {
        "type": "Point",
        "coordinates": [
          46.47533208187737,
          80.78455237455324
        ]
      }
    },
    {
      "type": "Feature",
      "properties": {
        "norad_id": 31945,
        "name": "FENGYUN 1C DEB",
        "group": "fengyun-1c-debris",
        "lat": -32.50218775706876,
        "lon": -118.38936113574023,
        "alt_km": 807.8076615842292,
        "timestamp": "2025-12-16T23:36:36.481500+00:00",
        "meta_object_name": "FENGYUN 1C DEB",
        "meta_object_id": "1999-025CMW",
        "meta_epoch": "2025-12-13T11:47:25.444608",
        "meta_mean_motion": 14.20810827,
        "meta_eccentricity": 0.00610185,
        "meta_inclination": 98.9627,
        "meta_ra_of_asc_node": 63.8406,
        "meta_arg_of_pericenter": 284.9979,
        "meta_mean_anomaly": 74.4449,
        "meta_ephemeris_type": 0,
        "meta_classification_type": "U",
        "meta_norad_cat_id": 31945,
        "meta_element_set_no": 999,
        "meta_rev_at_epoch": 95206,
        "meta_bstar": 0.0023325196,
        "meta_mean_motion_dot": 5.09e-05,
        "meta_mean_motion_ddot": 0,
        "tle_line1": "1 31945U 99025CMW 25347.49126672  .00005090  00000+0  23325-2 0  9995",
        "tle_line2": "2 31945  98.9627  63.8406 0061018 284.9979  74.4449 14.20810827952063"
      },
      "geometry": {
        "type": "Point",
        "coordinates": [
          -118.38936113574023,
          -32.50218775706876
        ]
      }
    },
    {
      "type": "Feature",
      "properties": {
        "norad_id": 31946,
        "name": "FENGYUN 1C DEB",
        "group": "fengyun-1c-debris",
        "lat": 20.748660460735852,
        "lon": 47.804391162361675,
        "alt_km": 780.3030505624947,
        "timestamp": "2025-12-16T23:36:36.481510+00:00",
        "meta_object_name": "FENGYUN 1C DEB",
        "meta_object_id": "1999-025CMX",
        "meta_epoch": "2025-12-12T21:11:04.797024",
        "meta_mean_motion": 14.16435479,
        "meta_eccentricity": 0.00822373,
        "meta_inclination": 98.8979,
        "meta_ra_of_asc_node": 47.1081,
        "meta_arg_of_pericenter": 49.4272,
        "meta_mean_anomaly": 311.4022,
        "meta_ephemeris_type": 0,
        "meta_classification_type": "U",
        "meta_norad_cat_id": 31946,
        "meta_element_set_no": 999,
        "meta_rev_at_epoch": 64010,
        "meta_bstar": 0.0019247318,
        "meta_mean_motion_dot": 3.913e-05,
        "meta_mean_motion_ddot": 0,
        "tle_line1": "1 31946U 99025CMX 25346.88269441  .00003913  00000+0  19247-2 0  9990",
        "tle_line2": "2 31946  98.8979  47.1081 0082237  49.4272 311.4022 14.16435479640104"
      },
      "geometry": {
        "type": "Point",
        "coordinates": [
          47.804391162361675,
          20.748660460735852
        ]
      }
    },
    {
      "type": "Feature",
      "properties": {
        "norad_id": 31948,
        "name": "FENGYUN 1C DEB",
        "group": "fengyun-1c-debris",
        "lat": -44.379735426950255,
        "lon": -137.5896446749486,
        "alt_km": 818.0006543229329,
        "timestamp": "2025-12-16T23:36:36.481522+00:00",
        "meta_object_name": "FENGYUN 1C DEB",
        "meta_object_id": "1999-025CMZ",
        "meta_epoch": "2025-12-14T03:27:04.644864",
        "meta_mean_motion": 14.2830578,
        "meta_eccentricity": 0.00235551,
        "meta_inclination": 99.3923,
        "meta_ra_of_asc_node": 48.6786,
        "meta_arg_of_pericenter": 19.4303,
        "meta_mean_anomaly": 11.0256,
        "meta_ephemeris_type": 0,
        "meta_classification_type": "U",
        "meta_norad_cat_id": 31948,
        "meta_element_set_no": 999,
        "meta_rev_at_epoch": 95048,
        "meta_bstar": 0.0016789951,
        "meta_mean_motion_dot": 4.154e-05,
        "meta_mean_motion_ddot": 0,
        "tle_line1": "1 31948U 99025CMZ 25348.14380376  .00004154  00000+0  16790-2 0  9992",
        "tle_line2": "2 31948  99.3923  48.6786 0023555  19.4303  11.0256 14.28305780950480"
      },
      "geometry": {
        "type": "Point",
        "coordinates": [
          -137.5896446749486,
          -44.379735426950255
        ]
      }
    },
    {
      "type": "Feature",
      "properties": {
        "norad_id": 31949,
        "name": "FENGYUN 1C DEB",
        "group": "fengyun-1c-debris",
        "lat": -52.1200982356036,
        "lon": 145.17700510151386,
        "alt_km": 766.0296772387046,
        "timestamp": "2025-12-16T23:36:36.481535+00:00",
        "meta_object_name": "FENGYUN 1C DEB",
        "meta_object_id": "1999-025CNA",
        "meta_epoch": "2025-11-23T05:03:27.897984",
        "meta_mean_motion": 14.1687356,
        "meta_eccentricity": 0.01252295,
        "meta_inclination": 98.5419,
        "meta_ra_of_asc_node": 313.4803,
        "meta_arg_of_pericenter": 269.0533,
        "meta_mean_anomaly": 89.6292,
        "meta_ephemeris_type": 0,
        "meta_classification_type": "U",
        "meta_norad_cat_id": 31949,
        "meta_element_set_no": 999,
        "meta_rev_at_epoch": 95228,
        "meta_bstar": 0.00041514195,
        "meta_mean_motion_dot": 8.56e-06,
        "meta_mean_motion_ddot": 0,
        "tle_line1": "1 31949U 99025CNA 25327.21073956  .00000856  00000+0  41514-3 0  9999",
        "tle_line2": "2 31949  98.5419 313.4803 0125229 269.0533  89.6292 14.16873560952288"
      },
      "geometry": {
        "type": "Point",
        "coordinates": [
          145.17700510151386,
          -52.1200982356036
        ]
      }
    }
  ]
}